NORAD_CAT_ID,OBJECT_NAME,OBJECT_TYPE,EPOCH,MEAN_MOTION,ECCENTRICITY,INCLINATION,RA_OF_ASC_NODE,ARG_OF_PERICENTER,MEAN_ANOMALY,BSTAR,MEAN_MOTION_DOT,MEAN_MOTION_DDOT,TLE_LINE0,TLE_LINE1,TLE_LINE2,SEMIMAJOR_AXIS,PERIOD,APOGEE,PERIGEE,DECAYED
51862.0,STARLINK-3508,PAYLOAD,2022-04-19 14:00:01,15.5817001,0.0001168,53.2176,272.2929,78.1904,232.9531,-0.010173,-0.0071541,0.0,0 STARLINK-3508,1 51862U 22022L   22109.58334491 -.00715410  00000-0 -10173-1 0  9994,2 51862  53.2176 272.2929 0001168  78.1904 232.9531 15.58170010  3710,6771.09,92.416,393.746,392.165,0.0
51862.0,STARLINK-3508,PAYLOAD,2022-04-19 22:00:00,15.57657851,0.0001015,53.2174,270.6846,85.2686,296.4292,-0.010306,-0.00711196,0.0,0 STARLINK-3508,1 51862U 22022L   22109.91667824 -.00711196  00000-0 -10306-1 0  9995,2 51862  53.2174 270.6846 0001015  85.2686 296.4292 15.57657851  8700,6772.575,92.446,395.127,393.752,0.0
51862.0,STARLINK-3508,PAYLOAD,2022-04-20 14:00:01,15.56638642,0.0001412,53.2177,267.4675,54.9483,106.0212,-0.010734,-0.00712794,0.0,0 STARLINK-3508,1 51862U 22022L   22110.58334491 -.00712794  00000-0 -10734-1 0  9991,2 51862  53.2177 267.4675 0001412  54.9483 106.0212 15.56638642  3693,6775.53,92.507,398.352,396.439,0.0
51862.0,STARLINK-3508,PAYLOAD,2022-04-20 22:00:00,15.56126794,0.0001240999999999,53.2173,265.8624,79.0893,150.5961,-0.010878,-0.0070896999999999,0.0,0 STARLINK-3508,1 51862U 22022L   22110.91667824 -.00708970  00000-0 -10878-1 0  9997,2 51862  53.2173 265.8624 0001241  79.0893 150.5961 15.56126794  8867,6777.016,92.537,399.722,398.04,0.0
51862.0,STARLINK-3508,PAYLOAD,2022-04-21 14:00:01,15.55110679,0.0001312,53.2177,262.6531,49.2469,316.032,-0.011413,-0.00715663,0.0,0 STARLINK-3508,1 51862U 22022L   22111.58334491 -.00715663  00000-0 -11413-1 0  9995,2 51862  53.2177 262.6531 0001312  49.2469 316.0320 15.55110679  3700,6779.968000000003,92.598,402.722,400.943,0.0
51862.0,STARLINK-3508,PAYLOAD,2022-04-21 22:00:00,15.54598779,0.0001125,53.2171,261.0517,64.4225,7.7342,-0.011562,-0.00711737,0.0,0 STARLINK-3508,1 51862U 22022L   22111.91667824 -.00711737  00000-0 -11562-1 0  9994,2 51862  53.2171 261.0517 0001125  64.4225   7.7342 15.54598779  3711,6781.456,92.628,404.084,402.5580000000001,0.0
51862.0,STARLINK-3508,PAYLOAD,2022-04-22 14:00:01,15.53577496,0.0001482,53.2174,257.8497,56.8894,147.1859,-0.01197,-0.00709943,0.0,0 STARLINK-3508,1 51862U 22022L   22112.58334491 -.00709943  00000-0 -11970-1 0  9998,2 51862  53.2174 257.8497 0001482  56.8894 147.1859 15.53577496  3711,6784.428000000001,92.689,407.298,405.287,0.0
51862.0,STARLINK-3508,PAYLOAD,2022-04-22 22:00:00,15.53069576,0.0001371,53.2173,256.2517,55.5107,213.6027,-0.012244,-0.0071258,0.0,0 STARLINK-3508,1 51862U 22022L   22112.91667824 -.00712580  00000-0 -12244-1 0  9990,2 51862  53.2173 256.2517 0001371  55.5107 213.6027 15.53069576  9173,6785.906999999997,92.72,408.702,406.842,0.0
51862.0,STARLINK-3508,PAYLOAD,2022-04-23 14:00:01,15.51973197,0.0001337,53.2173,253.0554,68.6757,328.7252,-0.01095,-0.00619718,0.0,0 STARLINK-3508,1 51862U 22022L   22113.58334491 -.00619718  00000-0 -10950-1 0  9996,2 51862  53.2173 253.0554 0001337  68.6757 328.7252 15.51973197  3675,6789.102,92.785,411.875,410.06,0.0
51862.0,STARLINK-3508,PAYLOAD,2022-04-23 22:00:00,15.51539374,0.0001247,53.2172,251.4628,58.5729,41.9827,-0.012932,-0.00721132,0.0,0 STARLINK-3508,1 51862U 22022L   22113.91667824 -.00721132  00000-0 -12932-1 0  9998,2 51862  53.2172 251.4628 0001247  58.5729  41.9827 15.51539374  9320,6790.368,92.811,413.08,411.386,0.0
51862.0,STARLINK-3508,PAYLOAD,2022-04-24 14:00:01,15.50502205,0.0001702,53.2175,248.2753,43.6817,181.4428,-0.012688,-0.00676248,0.0,0 STARLINK-3508,1 51862U 22022L   22114.58334491 -.00676248  00000-0 -12688-1 0  9998,2 51862  53.2175 248.2753 0001702  43.6817 181.4428 15.50502205  3698,6793.396,92.873,416.417,414.105,0.0
51862.0,STARLINK-3508,PAYLOAD,2022-04-24 22:00:00,15.49814169,0.0001588,53.216,246.6803,50.8227,235.7262,0.0017062999999999,0.00097359,0.0,0 STARLINK-3508,1 51862U 22022L   22114.91667824  .00097359  00000-0  17063-2 0  9995,2 51862  53.2160 246.6803 0001588  50.8227 235.7262 15.49814169  9482,6795.406,92.914,418.35,416.192,0.0
51862.0,STARLINK-3508,PAYLOAD,2022-04-25 14:00:01,15.49880521,0.0001434,53.2152,243.4865,38.5562,9.7466,-0.0001575,-9.378e-05,0.0,0 STARLINK-3508,1 51862U 22022L   22115.58334491 -.00009378  00000-0 -15750-3 0  9998,2 51862  53.2152 243.4865 0001434  38.5562   9.7466 15.49880521  9582,6795.212,92.91,418.052,416.103,0.0
51862.0,STARLINK-3508,PAYLOAD,2022-04-25 22:00:00,15.49892941,0.0001523,53.2151,241.8934,34.0575,75.1477,0.00021309,0.00011664,0.0,0 STARLINK-3508,1 51862U 22022L   22115.91667824  .00011664  00000-0  21309-3 0  9990,2 51862  53.2151 241.8934 0001523  34.0575  75.1477 15.49892941  3700,6795.176,92.91,418.076,416.006,0.0
51862.0,STARLINK-3508,PAYLOAD,2022-04-26 06:00:00,15.49883785,0.0001356,53.2154,240.2985,40.1432,129.9949,0.0010929,0.00062067,0.0,0 STARLINK-3508,1 51862U 22022L   22116.25001157  .00062067  00000-0  10929-2 0  9997,2 51862  53.2154 240.2985 0001356  40.1432 129.9949 15.49883785  9698,6795.203,92.91,417.989,416.146,0.0
51862.0,STARLINK-3508,PAYLOAD,2022-04-26 14:00:01,15.49923808,0.0001592,53.2158,238.7069,36.7863,194.3499,1.7521e-05,5.44e-06,0.0,0 STARLINK-3508,1 51862U 22022L   22116.58335648  .00000544  00000-0  17521-4 0  9997,2 51862  53.2158 238.7069 0001592  36.7863 194.3499 15.49923808  3699,6795.0859999999975,92.908,418.033,415.869,0.0
51862.0,STARLINK-3508,PAYLOAD,2022-04-26 22:00:00,15.49945777,0.0001641,53.2161,237.1148,32.5203,259.5051,-4.919e-05,-3.249e-05,0.0,0 STARLINK-3508,1 51862U 22022L   22116.91667824 -.00003249  00000-0 -49190-4 0  9992,2 51862  53.2161 237.1148 0001641  32.5203 259.5051 15.49945777  9795,6795.022,92.906,418.002,415.771,0.0
51862.0,STARLINK-3508,PAYLOAD,2022-04-27 14:00:01,15.49912519,0.0001891,53.216,233.9274,41.2219,12.8342,-4.6152e-05,-3.073e-05,0.0,0 STARLINK-3508,1 51862U 22022L   22117.58335648 -.00003073  00000-0 -46152-4 0  9992,2 51862  53.2160 233.9274 0001891  41.2219  12.8342 15.49912519  3660,6795.119000000002,92.908,418.269,415.699,0.0
51862.0,STARLINK-3508,PAYLOAD,2022-04-27 22:00:00,15.49946876,0.000184,53.2156,232.334,36.28,78.6504,-0.0017597,-0.0009929,0.0,0 STARLINK-3508,1 51862U 22022L   22117.91667824 -.00099290  00000-0 -17597-2 0  9998,2 51862  53.2156 232.3340 0001840  36.2800  78.6504 15.49946876  9946,6795.018,92.906,418.134,415.633,0.0
51862.0,STARLINK-3508,PAYLOAD,2022-04-28 06:00:00,15.49862632,0.000159,53.2159,230.7396,39.7261,136.1506,0.0010053,0.00056976,0.0,0 STARLINK-3508,1 51862U 22022L   22118.25001157  .00056976  00000-0  10053-2 0  9999,2 51862  53.2159 230.7396 0001590  39.7261 136.1506 15.49862632 10001,6795.265,92.911,418.21,416.049,0.0
51862.0,STARLINK-3508,PAYLOAD,2022-04-28 14:00:01,15.49897698,0.0001818,53.2158,229.1485,35.1057,201.6833,0.00016037,8.664e-05,0.0,0 STARLINK-3508,1 51862U 22022L   22118.58334491  .00008664  00000-0  16037-3 0  9995,2 51862  53.2158 229.1485 0001818  35.1057 201.6833 15.49897698  3707,6795.1619999999975,92.909,418.262,415.792,0.0
51862.0,STARLINK-3508,PAYLOAD,2022-04-28 20:00:01,15.49916789,0.0001816,53.2155,227.9538,31.5608,160.92700000000005,0.00027152,0.00015005,0.0,0 STARLINK-3508,1 51862U 22022L   22118.83334491  .00015005  00000-0  27152-3 0  9990,2 51862  53.2155 227.9538 0001816  31.5608 160.9270 15.49916789 10094,6795.106,92.908,418.205,415.737,0.0
51862.0,STARLINK-3508,PAYLOAD,2022-04-29 06:00:00,15.49867769,0.0001522,53.216,225.9603,34.1131,324.582,0.00072411,0.00040835,0.0,0 STARLINK-3508,1 51862U 22022L   22119.25001157  .00040835  00000-0  72411-3 0  9994,2 51862  53.2160 225.9603 0001522  34.1131 324.5820 15.49867769 10154,6795.25,92.911,418.149,416.08,0.0
51862.0,STARLINK-3508,PAYLOAD,2022-04-29 14:00:01,15.49919486,0.0001806,53.2161,224.3693,30.1219,29.4785,-0.0013936,-0.00078854,0.0,0 STARLINK-3508,1 51862U 22022L   22119.58334491 -.00078854  00000-0 -13936-2 0  9990,2 51862  53.2161 224.3693 0001806  30.1219  29.4785 15.49919486  3714,6795.098000000001,92.908,418.191,415.736,0.0
51862.0,STARLINK-3508,PAYLOAD,2022-04-29 22:00:00,15.4987579,0.0001895,53.2161,222.7756,32.664,87.8604,-0.0004132,-0.00023825,0.0,0 STARLINK-3508,1 51862U 22022L   22119.91667824 -.00023825  00000-0 -41320-3 0  9993,2 51862  53.2161 222.7756 0001895  32.6640  87.8604 15.49875790 10264,6795.226,92.911,418.379,415.80300000000005,0.0
51862.0,STARLINK-3508,PAYLOAD,2022-04-30 12:00:00,15.49886756,0.0001972,53.2165,219.9882,34.7197,102.3578,-0.00016441,-9.772e-05,0.0,0 STARLINK-3508,1 51862U 22022L   22120.50001157 -.00009772  00000-0 -16441-3 0  9992,2 51862  53.2165 219.9882 0001972  34.7197 102.3578 15.49886756 10359,6795.194,92.91,418.399,415.719,0.0
51862.0,STARLINK-3508,PAYLOAD,2022-04-30 14:00:01,15.49884023,0.0002035,53.2167,219.5904,33.6295,208.6765,-8.6671e-05,-5.368e-05,0.0,0 STARLINK-3508,1 51862U 22022L   22120.58334491 -.00005368  00000-0 -86671-4 0  9990,2 51862  53.2167 219.5904 0002035  33.6295 208.6765 15.49884023  3669,6795.2019999999975,92.91,418.45,415.684,0.0
51862.0,STARLINK-3508,PAYLOAD,2022-04-30 22:00:00,15.49897699,0.0001949,53.2164,217.9965,29.2526,273.9717,-0.0014072,-0.00079552,0.0,0 STARLINK-3508,1 51862U 22022L   22120.91667824 -.00079552  00000-0 -14072-2 0  9996,2 51862  53.2164 217.9965 0001949  29.2526 273.9717 15.49897699  3650,6795.1619999999975,92.909,418.351,415.703,0.0
51862.0,STARLINK-3508,PAYLOAD,2022-05-01 14:00:01,15.49861266,0.0002068,53.2162,214.8118,29.2339,35.7632,0.00023179,0.00012714,0.0,0 STARLINK-3508,1 51862U 22022L   22121.58334491  .00012714  00000-0  23179-3 0  9995,2 51862  53.2162 214.8118 0002068  29.2339  35.7632 15.49861266 10513,6795.269,92.912,418.539,415.728,0.0
